{"type": "FeatureCollection", "features": [ {"type": "Feature", "properties": {"norad_id": 34432, "name": "COSMOS 2251 DEB", "group": "cosmos-2251-debris", "lat": 63.884238482621576, "lon": -98.24642218805465, "alt_km": 877.9873798070676, "timestamp": "2025-12-03T19:33:07.371622+00:00", "meta": {"OBJECT_NAME": "COSMOS 2251 DEB", "OBJECT_ID": "1993-036RZ", "EPOCH": "2025-12-03T02:28:17.071104", "MEAN_MOTION": 14.02836729, "ECCENTRICITY": 0.01831849, "INCLINATION": 73.8275, "RA_OF_ASC_NODE": 119.3014, "ARG_OF_PERICENTER": 203.436, "MEAN_ANOMALY": 276.5797, "EPHEMERIS_TYPE": 0, "CLASSIFICATION_TYPE": "U", "NORAD_CAT_ID": 34432, "ELEMENT_SET_NO": 999, "REV_AT_EPOCH": 85549, "BSTAR": 0.0016054633, "MEAN_MOTION_DOT": 2.856e-05, "MEAN_MOTION_DDOT": 0}, "tle": {"line1": "1 34432U 93036RZ  25337.10297536  .00002856  00000+0  16055-2 0  9999", "line2": "2 34432  73.8275 119.3014 0183184 203.4360 276.5797 14.02836729855498"}}, "geometry": {"type": "Point", "coordinates": [-98.24642218805465, 63.884238482621576]}}, {"type": "Feature", "properties": {"norad_id": 34433, "name": "COSMOS 2251 DEB", "group": "cosmos-2251-debris", "lat": 3.048105193896057, "lon": -10.129386464434184, "alt_km": 927.4562690873427, "timestamp": "2025-12-03T19:33:07.371632+00:00", "meta": {"OBJECT_NAME": "COSMOS 2251 DEB", "OBJECT_ID": "1993-036SA", "EPOCH": "2025-12-03T00:00:45.111168", "MEAN_MOTION": 14.12779901, "ECCENTRICITY": 0.01517359, "INCLINATION": 74.0107, "RA_OF_ASC_NODE": 172.1866, "ARG_OF_PERICENTER": 312.4155, "MEAN_ANOMALY": 46.4228, "EPHEMERIS_TYPE": 0, "CLASSIFICATION_TYPE": "U", "NORAD_CAT_ID": 34433, "ELEMENT_SET_NO": 999, "REV_AT_EPOCH": 85812, "BSTAR": 0.0017302028, "MEAN_MOTION_DOT": 3.559e-05, "MEAN_MOTION_DDOT": 0}, "tle": {"line1": "1 34433U 93036SA  25337.00052212  .00003559  00000+0  17302-2 0  9996", "line2": "2 34433  74.0107 172.1866 0151735 312.4155  46.4228 14.12779901858123"}}, "geometry": {"type": "Point", "coordinates": [-10.129386464434184, 3.048105193896057]}}, {"type": "Feature", "properties": {"norad_id": 34434, "name": "COSMOS 2251 DEB", "group": "cosmos-2251-debris", "lat": 73.51616642696749, "lon": 100.2209425559879, "alt_km": 877.9711631560231, "timestamp": "2025-12-03T19:33:07.371642+00:00", "meta": {"OBJECT_NAME": "COSMOS 2251 DEB", "OBJECT_ID": "1993-036SB", "EPOCH": "2025-12-03T12:50:14.161632", "MEAN_MOTION": 13.89695023, "ECCENTRICITY": 0.0276333, "INCLINATION": 74.064, "RA_OF_ASC_NODE": 25.7785, "ARG_OF_PERICENTER": 165.1837, "MEAN_ANOMALY": 324.4986, "EPHEMERIS_TYPE": 0, "CLASSIFICATION_TYPE": "U", "NORAD_CAT_ID": 34434, "ELEMENT_SET_NO": 999, "REV_AT_EPOCH": 83838, "BSTAR": 0.0039719, "MEAN_MOTION_DOT": 6.605e-05, "MEAN_MOTION_DDOT": 0}, "tle": {"line1": "1 34434U 93036SB  25337.53488613  .00006605  00000+0  39719-2 0  9994", "line2": "2 34434  74.0640  25.7785 0276333 165.1837 324.4986 13.89695023838382"}}, "geometry": {"type": "Point", "coordinates": [100.2209425559879, 73.51616642696749]}}, {"type": "Feature", "properties": {"norad_id": 34446, "name": "COSMOS 2251 DEB", "group": "cosmos-2251-debris", "lat": 17.031215530523426, "lon": -111.01031220841, "alt_km": 705.2461476092212, "timestamp": "2025-12-03T19:33:07.371652+00:00", "meta": {"OBJECT_NAME": "COSMOS 2251 DEB", "OBJECT_ID": "1993-036SP", "EPOCH": "2025-12-03T10:31:10.797024", "MEAN_MOTION": 14.49334072, "ECCENTRICITY": 0.0051573, "INCLINATION": 74.0422, "RA_OF_ASC_NODE": 74.7236, "ARG_OF_PERICENTER": 214.8277, "MEAN_ANOMALY": 144.9505, "EPHEMERIS_TYPE": 0, "CLASSIFICATION_TYPE": "U", "NORAD_CAT_ID": 34446, "ELEMENT_SET_NO": 999, "REV_AT_EPOCH": 88559, "BSTAR": 0.00025913, "MEAN_MOTION_DOT": 9.78e-06, "MEAN_MOTION_DDOT": 0}, "tle": {"line1": "1 34446U 93036SP  25337.43831941  .00000978  00000+0  25913-3 0  9991", "line2": "2 34446  74.0422  74.7236 0051573 214.8277 144.9505 14.49334072885593"}}, "geometry": {"type": "Point", "coordinates": [-111.01031220841, 17.031215530523426]}}, {"type": "Feature", "properties": {"norad_id": 34449, "name": "COSMOS 2251 DEB", "group": "cosmos-2251-debris", "lat": -54.65190815062822, "lon": 64.73815768644937, "alt_km": 609.0476586866835, "timestamp": "2025-12-03T19:33:07.371662+00:00", "meta": {"OBJECT_NAME": "COSMOS 2251 DEB", "OBJECT_ID": "1993-036SS", "EPOCH": "2025-12-03T08:48:41.644224", "MEAN_MOTION": 14.93881728, "ECCENTRICITY": 0.00248, "INCLINATION": 74.0326, "RA_OF_ASC_NODE": 89.4468, "ARG_OF_PERICENTER": 138.3693, "MEAN_ANOMALY": 277.8177, "EPHEMERIS_TYPE": 0, "CLASSIFICATION_TYPE": "U", "NORAD_CAT_ID": 34449, "ELEMENT_SET_NO": 999, "REV_AT_EPOCH": 88553, "BSTAR": 0.0043805, "MEAN_MOTION_DOT": 0.00047128, "MEAN_MOTION_DDOT": 0}, "tle": {"line1": "1 34449U 93036SS  25337.36714866  .00047128  00000+0  43805-2 0  9999", "line2": "2 34449  74.0326  89.4468 0024800 138.3693 277.8177 14.93881728885533"}}, "geometry": {"type": "Point", "coordinates": [64.73815768644937, -54.65190815062822]}}, {"type": "Feature", "properties": {"norad_id": 34451, "name": "COSMOS 2251 DEB", "group": "cosmos-2251-debris", "lat": -65.31719211221898, "lon": -35.639000798715074, "alt_km": 598.9741459384868, "timestamp": "2025-12-03T19:33:07.371672+00:00", "meta": {"OBJECT_NAME": "COSMOS 2251 DEB", "OBJECT_ID": "1993-036SU", "EPOCH": "2025-12-02T10:18:18.339552", "MEAN_MOTION": 14.94509424, "ECCENTRICITY": 0.00259091, "INCLINATION": 74.0446, "RA_OF_ASC_NODE": 108.65, "ARG_OF_PERICENTER": 135.584, "MEAN_ANOMALY": 224.7428, "EPHEMERIS_TYPE": 0, "CLASSIFICATION_TYPE": "U", "NORAD_CAT_ID": 34451, "ELEMENT_SET_NO": 999, "REV_AT_EPOCH": 88481, "BSTAR": 0.0036537809, "MEAN_MOTION_DOT": 0.00039917, "MEAN_MOTION_DDOT": 0}, "tle": {"line1": "1 34451U 93036SU  25336.42937893  .00039917  00000+0  36538-2 0  9997", "line2": "2 34451  74.0446 108.6500 0025909 135.5840 224.7428 14.94509424884815"}}, "geometry": {"type": "Point", "coordinates": [-35.639000798715074, -65.31719211221898]}}, {"type": "Feature", "properties": {"norad_id": 34452, "name": "COSMOS 2251 DEB", "group": "cosmos-2251-debris", "lat": 4.795947725928188, "lon": 19.908870266067886, "alt_km": 545.7220340442163, "timestamp": "2025-12-03T19:33:07.371682+00:00", "meta": {"OBJECT_NAME": "COSMOS 2251 DEB", "OBJECT_ID": "1993-036SV", "EPOCH": "2025-12-03T09:29:17.376000", "MEAN_MOTION": 15.11284484, "ECCENTRICITY": 0.0067386, "INCLINATION": 74.0364, "RA_OF_ASC_NODE": 202.152, "ARG_OF_PERICENTER": 280.4609, "MEAN_ANOMALY": 134.7417, "EPHEMERIS_TYPE": 0, "CLASSIFICATION_TYPE": "U", "NORAD_CAT_ID": 34452, "ELEMENT_SET_NO": 999, "REV_AT_EPOCH": 90521, "BSTAR": 0.0010257, "MEAN_MOTION_DOT": 0.0001824, "MEAN_MOTION_DDOT": 0}, "tle": {"line1": "1 34452U 93036SV  25337.39534000  .00018240  00000+0  10257-2 0  9994", "line2": "2 34452  74.0364 202.1520 0067386 280.4609 134.7417 15.11284484905217"}}, "geometry": {"type": "Point", "coordinates": [19.908870266067886, 4.795947725928188]}}, {"type": "Feature", "properties": {"norad_id": 34453, "name": "COSMOS 2251 DEB", "group": "cosmos-2251-debris", "lat": -41.34556003049978, "lon": 104.77996706035705, "alt_km": 389.18813800557837, "timestamp": "2025-12-03T19:33:07.371692+00:00", "meta": {"OBJECT_NAME": "COSMOS 2251 DEB", "OBJECT_ID": "1993-036SW", "EPOCH": "2025-12-03T08:56:51.584064", "MEAN_MOTION": 15.57401457, "ECCENTRICITY": 0.001862, "INCLINATION": 74.1171, "RA_OF_ASC_NODE": 120.2655, "ARG_OF_PERICENTER": 353.9346, "MEAN_ANOMALY": 6.1643, "EPHEMERIS_TYPE": 0, "CLASSIFICATION_TYPE": "U", "NORAD_CAT_ID": 34453, "ELEMENT_SET_NO": 999, "REV_AT_EPOCH": 88720, "BSTAR": 0.010714, "MEAN_MOTION_DOT": 0.00865647, "MEAN_MOTION_DDOT": 0}, "tle": {"line1": "1 34453U 93036SW  25337.37281926  .00865647  00000+0  10714-1 0  9997", "line2": "2 34453  74.1171 120.2655 0018620 353.9346   6.1643 15.57401457887207"}}, "geometry": {"type": "Point", "coordinates": [104.77996706035705, -41.34556003049978]}}, {"type": "Feature", "properties": {"norad_id": 34454, "name": "COSMOS 2251 DEB", "group": "cosmos-2251-debris", "lat": 22.62445428818343, "lon": -59.084324855629006, "alt_km": 739.0336926118725, "timestamp": "2025-12-03T19:33:07.371702+00:00", "meta": {"OBJECT_NAME": "COSMOS 2251 DEB", "OBJECT_ID": "1993-036SX", "EPOCH": "2025-12-03T07:45:44.301024", "MEAN_MOTION": 14.38781613, "ECCENTRICITY": 0.0035197, "INCLINATION": 74.0585, "RA_OF_ASC_NODE": 294.9786, "ARG_OF_PERICENTER": 359.572, "MEAN_ANOMALY": 0.5398, "EPHEMERIS_TYPE": 0, "CLASSIFICATION_TYPE": "U", "NORAD_CAT_ID": 34454, "ELEMENT_SET_NO": 999, "REV_AT_EPOCH": 87932, "BSTAR": 0.0004136, "MEAN_MOTION_DOT": 1.254e-05, "MEAN_MOTION_DDOT": 0}, "tle": {"line1": "1 34454U 93036SX  25337.32342941  .00001254  00000+0  41360-3 0  9997", "line2": "2 34454  74.0585 294.9786 0035197 359.5720   0.5398 14.38781613879328"}}, "geometry": {"type": "Point", "coordinates": [-59.084324855629006, 22.62445428818343]}}, {"type": "Feature", "properties": {"norad_id": 34459, "name": "COSMOS 2251 DEB", "group": "cosmos-2251-debris", "lat": 8.422885203894866, "lon": 87.05220979772662, "alt_km": 1030.9488561588769, "timestamp": "2025-12-03T19:33:07.371712+00:00", "meta": {"OBJECT_NAME": "COSMOS 2251 DEB", "OBJECT_ID": "1993-036TC", "EPOCH": "2025-12-03T05:01:03.597024", "MEAN_MOTION": 14.0046957, "ECCENTRICITY": 0.019187, "INCLINATION": 74.0791, "RA_OF_ASC_NODE": 270.5208, "ARG_OF_PERICENTER": 342.4626, "MEAN_ANOMALY": 16.9939, "EPHEMERIS_TYPE": 0, "CLASSIFICATION_TYPE": "U", "NORAD_CAT_ID": 34459, "ELEMENT_SET_NO": 999, "REV_AT_EPOCH": 85578, "BSTAR": 0.00090382, "MEAN_MOTION_DOT": 1.548e-05, "MEAN_MOTION_DDOT": 0}, "tle": {"line1": "1 34459U 93036TC  25337.20906941  .00001548  00000+0  90382-3 0  9999", "line2": "2 34459  74.0791 270.5208 0191870 342.4626  16.9939 14.00469570855788"}}, "geometry": {"type": "Point", "coordinates": [87.05220979772662, 8.422885203894866]}}]}